{"type": "FeatureCollection", "features": [ {"type": "Feature", "properties": {"norad_id": 40664, "name": "SKY MEXICO-1", "group": "intelsat", "lat": 0.0036185619617203975, "lon": 168.74845256203687, "alt_km": 35789.018642456074, "timestamp": "2025-12-06T11:28:10.697147+00:00", "meta": {"OBJECT_NAME": "SKY MEXICO-1", "OBJECT_ID": "2015-026B", "EPOCH": "2025-12-05T21:52:54.727392", "MEAN_MOTION": 1.00269863, "ECCENTRICITY": 0.00028538, "INCLINATION": 0.0148, "RA_OF_ASC_NODE": 8.9741, "ARG_OF_PERICENTER": 261.1309, "MEAN_ANOMALY": 54.3171, "EPHEMERIS_TYPE": 0, "CLASSIFICATION_TYPE": "U", "NORAD_CAT_ID": 40664, "ELEMENT_SET_NO": 999, "REV_AT_EPOCH": 3851, "BSTAR": 0, "MEAN_MOTION_DOT": -2.25e-06, "MEAN_MOTION_DDOT": 0}, "tle": {"line1": "1 40664U 15026B   25339.91174453 -.00000225  00000+0  00000+0 0  9998", "line2": "2 40664   0.0148   8.9741 0002853 261.1309  54.3171  1.00269863 38517"}}, "geometry": {"type": "Point", "coordinates": [168.74845256203687, 0.0036185619617203975]}}, {"type": "Feature", "properties": {"norad_id": 40874, "name": "INTELSAT 34 (IS-34)", "group": "intelsat", "lat": -0.025804069986763146, "lon": -167.94985496479453, "alt_km": 35784.01361728066, "timestamp": "2025-12-06T11:28:10.697159+00:00", "meta": {"OBJECT_NAME": "INTELSAT 34 (IS-34)", "OBJECT_ID": "2015-039A", "EPOCH": "2025-12-05T20:16:49.698624", "MEAN_MOTION": 1.00271506, "ECCENTRICITY": 5.383e-05, "INCLINATION": 0.0129, "RA_OF_ASC_NODE": 325.8778, "ARG_OF_PERICENTER": 215.7789, "MEAN_ANOMALY": 141.944, "EPHEMERIS_TYPE": 0, "CLASSIFICATION_TYPE": "U", "NORAD_CAT_ID": 40874, "ELEMENT_SET_NO": 999, "REV_AT_EPOCH": 3768, "BSTAR": 0, "MEAN_MOTION_DOT": -2.76e-06, "MEAN_MOTION_DDOT": 0}, "tle": {"line1": "1 40874U 15039A   25339.84501966 -.00000276  00000+0  00000+0 0  9996", "line2": "2 40874   0.0129 325.8778 0000538 215.7789 141.9440  1.00271506 37681"}}, "geometry": {"type": "Point", "coordinates": [-167.94985496479453, -0.025804069986763146]}}, {"type": "Feature", "properties": {"norad_id": 41581, "name": "INTELSAT 31 (IS-31)", "group": "intelsat", "lat": -0.014989115014155214, "lon": 152.4693690046332, "alt_km": 35783.02829772938, "timestamp": "2025-12-06T11:28:10.697171+00:00", "meta": {"OBJECT_NAME": "INTELSAT 31 (IS-31)", "OBJECT_ID": "2016-035A", "EPOCH": "2025-12-05T21:48:17.669376", "MEAN_MOTION": 1.00270095, "ECCENTRICITY": 0.00020973, "INCLINATION": 0.0181, "RA_OF_ASC_NODE": 271.3649, "ARG_OF_PERICENTER": 307.1586, "MEAN_ANOMALY": 88.4513, "EPHEMERIS_TYPE": 0, "CLASSIFICATION_TYPE": "U", "NORAD_CAT_ID": 41581, "ELEMENT_SET_NO": 999, "REV_AT_EPOCH": 3474, "BSTAR": 0, "MEAN_MOTION_DOT": -1.41e-06, "MEAN_MOTION_DDOT": 0}, "tle": {"line1": "1 41581U 16035A   25339.90853784 -.00000141  00000+0  00000+0 0  9995", "line2": "2 41581   0.0181 271.3649 0002097 307.1586  88.4513  1.00270095 34742"}}, "geometry": {"type": "Point", "coordinates": [152.4693690046332, -0.014989115014155214]}}, {"type": "Feature", "properties": {"norad_id": 41747, "name": "INTELSAT 36 (IS-36)", "group": "intelsat", "lat": -0.018902949209778953, "lon": -43.925864659480425, "alt_km": 35774.93351488575, "timestamp": "2025-12-06T11:28:10.697182+00:00", "meta": {"OBJECT_NAME": "INTELSAT 36 (IS-36)", "OBJECT_ID": "2016-053A", "EPOCH": "2025-12-05T21:26:38.561568", "MEAN_MOTION": 1.00280112, "ECCENTRICITY": 0.00021281, "INCLINATION": 0.0114, "RA_OF_ASC_NODE": 359.9271, "ARG_OF_PERICENTER": 305.4208, "MEAN_ANOMALY": 159.7561, "EPHEMERIS_TYPE": 0, "CLASSIFICATION_TYPE": "U", "NORAD_CAT_ID": 41747, "ELEMENT_SET_NO": 999, "REV_AT_EPOCH": 3401, "BSTAR": 0, "MEAN_MOTION_DOT": -1.7e-07, "MEAN_MOTION_DDOT": 0}, "tle": {"line1": "1 41747U 16053A   25339.89350187 -.00000017  00000+0  00000+0 0  9998", "line2": "2 41747   0.0114 359.9271 0002128 305.4208 159.7561  1.00280112 34019"}}, "geometry": {"type": "Point", "coordinates": [-43.925864659480425, -0.018902949209778953]}}, {"type": "Feature", "properties": {"norad_id": 41945, "name": "INTELSAT 32E (IS-32E)", "group": "intelsat", "lat": 0.001251242876829554, "lon": -155.63381082762925, "alt_km": 35787.45133361523, "timestamp": "2025-12-06T11:28:10.697194+00:00", "meta": {"OBJECT_NAME": "INTELSAT 32E (IS-32E)", "OBJECT_ID": "2017-007B", "EPOCH": "2025-12-05T22:03:08.746272", "MEAN_MOTION": 1.00270461, "ECCENTRICITY": 3.273e-05, "INCLINATION": 0.0317, "RA_OF_ASC_NODE": 69.9778, "ARG_OF_PERICENTER": 267.6371, "MEAN_ANOMALY": 24.9596, "EPHEMERIS_TYPE": 0, "CLASSIFICATION_TYPE": "U", "NORAD_CAT_ID": 41945, "ELEMENT_SET_NO": 999, "REV_AT_EPOCH": 3228, "BSTAR": 0, "MEAN_MOTION_DOT": -2.6e-06, "MEAN_MOTION_DDOT": 0}, "tle": {"line1": "1 41945U 17007B   25339.91885123 -.00000260  00000+0  00000+0 0  9994", "line2": "2 41945   0.0317  69.9778 0000327 267.6371  24.9596  1.00270461 32287"}}, "geometry": {"type": "Point", "coordinates": [-155.63381082762925, 0.001251242876829554]}}, {"type": "Feature", "properties": {"norad_id": 42818, "name": "INTELSAT 35E (IS-35E)", "group": "intelsat", "lat": -0.0311017956450714, "lon": -146.95550175406072, "alt_km": 35779.50785057034, "timestamp": "2025-12-06T11:28:10.697206+00:00", "meta": {"OBJECT_NAME": "INTELSAT 35E (IS-35E)", "OBJECT_ID": "2017-041A", "EPOCH": "2025-12-05T22:05:31.019424", "MEAN_MOTION": 1.00270215, "ECCENTRICITY": 0.00024242, "INCLINATION": 0.0172, "RA_OF_ASC_NODE": 352.0162, "ARG_OF_PERICENTER": 267.5985, "MEAN_ANOMALY": 112.2507, "EPHEMERIS_TYPE": 0, "CLASSIFICATION_TYPE": "U", "NORAD_CAT_ID": 42818, "ELEMENT_SET_NO": 999, "REV_AT_EPOCH": 3087, "BSTAR": 0, "MEAN_MOTION_DOT": -2.29e-06, "MEAN_MOTION_DDOT": 0}, "tle": {"line1": "1 42818U 17041A   25339.92049791 -.00000229  00000+0  00000+0 0  9991", "line2": "2 42818   0.0172 352.0162 0002424 267.5985 112.2507  1.00270215 30872"}}, "geometry": {"type": "Point", "coordinates": [-146.95550175406072, -0.0311017956450714]}}, {"type": "Feature", "properties": {"norad_id": 42950, "name": "INTELSAT 37E (IS-37E)", "group": "intelsat", "lat": -0.015303995300587257, "lon": -130.46178087019968, "alt_km": 35772.64159335382, "timestamp": "2025-12-06T11:28:10.697217+00:00", "meta": {"OBJECT_NAME": "INTELSAT 37E (IS-37E)", "OBJECT_ID": "2017-059A", "EPOCH": "2025-12-05T22:10:15.564000", "MEAN_MOTION": 1.00270695, "ECCENTRICITY": 0.00034995, "INCLINATION": 0.004, "RA_OF_ASC_NODE": 29.8645, "ARG_OF_PERICENTER": 221.4502, "MEAN_ANOMALY": 138.2268, "EPHEMERIS_TYPE": 0, "CLASSIFICATION_TYPE": "U", "NORAD_CAT_ID": 42950, "ELEMENT_SET_NO": 999, "REV_AT_EPOCH": 3012, "BSTAR": 0, "MEAN_MOTION_DOT": -1.31e-06, "MEAN_MOTION_DDOT": 0}, "tle": {"line1": "1 42950U 17059A   25339.92379125 -.00000131  00000+0  00000+0 0  9996", "line2": "2 42950   0.0040  29.8645 0003499 221.4502 138.2268  1.00270695 30127"}}, "geometry": {"type": "Point", "coordinates": [-130.46178087019968, -0.015303995300587257]}}, {"type": "Feature", "properties": {"norad_id": 43632, "name": "AZERSPACE 2 (IS-38)", "group": "intelsat", "lat": -0.015010008153272759, "lon": -67.32609420053588, "alt_km": 35780.78096115643, "timestamp": "2025-12-06T11:28:10.697229+00:00", "meta": {"OBJECT_NAME": "AZERSPACE 2 (IS-38)", "OBJECT_ID": "2018-074A", "EPOCH": "2025-12-05T20:13:38.707968", "MEAN_MOTION": 1.00270126, "ECCENTRICITY": 0.00016335, "INCLINATION": 0.009, "RA_OF_ASC_NODE": 310.2311, "ARG_OF_PERICENTER": 307.7534, "MEAN_ANOMALY": 165.4349, "EPHEMERIS_TYPE": 0, "CLASSIFICATION_TYPE": "U", "NORAD_CAT_ID": 43632, "ELEMENT_SET_NO": 999, "REV_AT_EPOCH": 2650, "BSTAR": 0, "MEAN_MOTION_DOT": 1.46e-06, "MEAN_MOTION_DDOT": 0}, "tle": {"line1": "1 43632U 18074A   25339.84280912  .00000146  00000+0  00000+0 0  9993", "line2": "2 43632   0.0090 310.2311 0001633 307.7534 165.4349  1.00270126 26506"}}, "geometry": {"type": "Point", "coordinates": [-67.32609420053588, -0.015010008153272759]}}, {"type": "Feature", "properties": {"norad_id": 43633, "name": "HORIZONS-3E", "group": "intelsat", "lat": 0.014783758481870067, "lon": 56.57673910828414, "alt_km": 35790.61974504541, "timestamp": "2025-12-06T11:28:10.697241+00:00", "meta": {"OBJECT_NAME": "HORIZONS-3E", "OBJECT_ID": "2018-074B", "EPOCH": "2025-12-05T21:20:57.787872", "MEAN_MOTION": 1.00268545, "ECCENTRICITY": 0.00011405, "INCLINATION": 0.0401, "RA_OF_ASC_NODE": 192.2057, "ARG_OF_PERICENTER": 85.4441, "MEAN_ANOMALY": 286.5534, "EPHEMERIS_TYPE": 0, "CLASSIFICATION_TYPE": "U", "NORAD_CAT_ID": 43633, "ELEMENT_SET_NO": 999, "REV_AT_EPOCH": 2640, "BSTAR": 0, "MEAN_MOTION_DOT": -2.1e-07, "MEAN_MOTION_DDOT": 0}, "tle": {"line1": "1 43633U 18074B   25339.88955773 -.00000021  00000+0  00000+0 0  9995", "line2": "2 43633   0.0401 192.2057 0001140  85.4441 286.5534  1.00268545 26400"}}, "geometry": {"type": "Point", "coordinates": [56.57673910828414, 0.014783758481870067]}}, {"type": "Feature", "properties": {"norad_id": 44333, "name": "AT&T T-16", "group": "intelsat", "lat": 0.02448418528245572, "lon": 146.68623709839733, "alt_km": 35783.57025737841, "timestamp": "2025-12-06T11:28:10.697254+00:00", "meta": {"OBJECT_NAME": "AT&T T-16", "OBJECT_ID": "2019-034A", "EPOCH": "2025-12-05T21:46:40.325088", "MEAN_MOTION": 1.00271318, "ECCENTRICITY": 6.937e-05, "INCLINATION": 0.0289, "RA_OF_ASC_NODE": 66.1436, "ARG_OF_PERICENTER": 104.688, "MEAN_ANOMALY": 129.9319, "EPHEMERIS_TYPE": 0, "CLASSIFICATION_TYPE": "U", "NORAD_CAT_ID": 44333, "ELEMENT_SET_NO": 999, "REV_AT_EPOCH": 2369, "BSTAR": 0, "MEAN_MOTION_DOT": -1.06e-06, "MEAN_MOTION_DDOT": 0}, "tle": {"line1": "1 44333U 19034A   25339.90741117 -.00000106  00000+0  00000+0 0  9992", "line2": "2 44333   0.0289  66.1436 0000693 104.6880 129.9319  1.00271318 23696"}}, "geometry": {"type": "Point", "coordinates": [146.68623709839733, 0.02448418528245572]}}]}